start=new Date('2021-12-05T00:00:00.000Z').valueOf();
sats=[{"OBJECT_TYPE":"PAYLOAD","PERIOD":"95.593","OBJECT_ID":"2019-074BB","MEAN_ANOMALY":"307.4541","OBJECT_NAME":"STARLINK-1057","NORAD_CAT_ID":"44762","PERIAPSIS":"546.149","BSTAR":"0.00000509500000","RCS_SIZE":"LARGE","TIME_SYSTEM":"UTC","MEAN_ELEMENT_THEORY":"SGP4","EPOCH":"2021-12-04T18:16:11.648352","EPHEMERIS_TYPE":"0","DECAY_DATE":null,"ECCENTRICITY":"0.00015890","ARG_OF_PERICENTER":"52.6593","TLE_LINE1":"1 44762U 19074BB  21338.76124593 -.00000206  00000-0  50950-5 0  9991","MEAN_MOTION_DDOT":"0.0000000000000","CENTER_NAME":"EARTH","REF_FRAME":"TEME","INCLINATION":"53.0545","TLE_LINE2":"2 44762  53.0545 351.4512 0001589  52.6593 307.4541 15.06388327113957","REV_AT_EPOCH":"11395","CLASSIFICATION_TYPE":"U","MEAN_MOTION_DOT":"-0.00000206","ELEMENT_SET_NO":"999","MEAN_MOTION":"15.06388327","FILE":"3232651","SEMIMAJOR_AXIS":"6925.384","SITE":"AFETR","GP_ID":"191101505","LAUNCH_DATE":"2019-11-11","RA_OF_ASC_NODE":"351.4512","COUNTRY_CODE":"US","APOAPSIS":"548.350"},{"APOAPSIS":"548.208","RA_OF_ASC_NODE":"12.5623","COUNTRY_CODE":"US","ELEMENT_SET_NO":"999","MEAN_MOTION_DOT":"-0.00001038","SITE":"AFETR","GP_ID":"191101756","LAUNCH_DATE":"2019-11-11","MEAN_MOTION":"15.06392516","FILE":"3232651","SEMIMAJOR_AXIS":"6925.371","INCLINATION":"53.0563","REF_FRAME":"TEME","CENTER_NAME":"EARTH","CLASSIFICATION_TYPE":"U","TLE_LINE2":"2 44763  53.0563  12.5623 0001403  68.8965 291.2174 15.06392516113646","REV_AT_EPOCH":"11364","ECCENTRICITY":"0.00014030","MEAN_MOTION_DDOT":"0.0000000000000","TLE_LINE1":"1 44763U 19074BC  21338.51612403 -.00001038  00000-0 -50789-4 0  9991","ARG_OF_PERICENTER":"68.8965","MEAN_ELEMENT_THEORY":"SGP4","RCS_SIZE":"LARGE","TIME_SYSTEM":"UTC","DECAY_DATE":null,"EPHEMERIS_TYPE":"0","EPOCH":"2021-12-04T12:23:13.116192","PERIAPSIS":"546.265","BSTAR":"-0.00005078900000","MEAN_ANOMALY":"291.2174","NORAD_CAT_ID":"44763","OBJECT_NAME":"STARLINK-1058","OBJECT_ID":"2019-074BC","PERIOD":"95.593","OBJECT_TYPE":"PAYLOAD"},{"FILE":"3232651","MEAN_MOTION":"15.06399609","SEMIMAJOR_AXIS":"6925.350","SITE":"AFETR","GP_ID":"191100504","LAUNCH_DATE":"2019-11-11","MEAN_MOTION_DOT":"0.00000360","ELEMENT_SET_NO":"999","RA_OF_ASC_NODE":"351.4743","COUNTRY_CODE":"US","APOAPSIS":"548.140","ARG_OF_PERICENTER":"72.9476","MEAN_MOTION_DDOT":"0.0000000000000","TLE_LINE1":"1 44764U 19074BD  21338.75754965  .00000360  00000-0  43041-4 0  9996","ECCENTRICITY":"0.00013360","REV_AT_EPOCH":"11395","TLE_LINE2":"2 44764  53.0559 351.4743 0001336  72.9476 287.1659 15.06399609113954","CLASSIFICATION_TYPE":"U","REF_FRAME":"TEME","CENTER_NAME":"EARTH","INCLINATION":"53.0559","BSTAR":"0.00004304100000","PERIAPSIS":"546.290","EPOCH":"2021-12-04T18:10:52.289760","DECAY_DATE":null,"EPHEMERIS_TYPE":"0","TIME_SYSTEM":"UTC","RCS_SIZE":"LARGE","MEAN_ELEMENT_THEORY":"SGP4","PERIOD":"95.592","OBJECT_ID":"2019-074BD","OBJECT_TYPE":"PAYLOAD","OBJECT_NAME":"STARLINK-1059","NORAD_CAT_ID":"44764","MEAN_ANOMALY":"287.1659"},{"BSTAR":"0.00000050232000","PERIAPSIS":"546.188","EPOCH":"2021-12-04T18:37:25.406400","DECAY_DATE":null,"EPHEMERIS_TYPE":"0","TIME_SYSTEM":"UTC","RCS_SIZE":"LARGE","MEAN_ELEMENT_THEORY":"SGP4","PERIOD":"95.593","OBJECT_ID":"2019-074BE","OBJECT_TYPE":"PAYLOAD","OBJECT_NAME":"STARLINK-1060","NORAD_CAT_ID":"44765","MEAN_ANOMALY":"283.3241","FILE":"3232651","SEMIMAJOR_AXIS":"6925.372","MEAN_MOTION":"15.06392435","SITE":"AFETR","GP_ID":"191101254","LAUNCH_DATE":"2019-11-11","MEAN_MOTION_DOT":"-0.00000274","ELEMENT_SET_NO":"999","RA_OF_ASC_NODE":"351.3817","COUNTRY_CODE":"US","APOAPSIS":"548.286","ARG_OF_PERICENTER":"76.7917","MEAN_MOTION_DDOT":"0.0000000000000","TLE_LINE1":"1 44765U 19074BE  21338.77598850 -.00000274  00000-0  50232-6 0  9995","ECCENTRICITY":"0.00015150","REV_AT_EPOCH":"11395","TLE_LINE2":"2 44765  53.0554 351.3817 0001515  76.7917 283.3241 15.06392435113957","CLASSIFICATION_TYPE":"U","REF_FRAME":"TEME","CENTER_NAME":"EARTH","INCLINATION":"53.0554"},{"PERIAPSIS":"546.323","BSTAR":"0.00005804400000","MEAN_ELEMENT_THEORY":"SGP4","TIME_SYSTEM":"UTC","RCS_SIZE":"LARGE","EPHEMERIS_TYPE":"0","DECAY_DATE":null,"EPOCH":"2021-12-04T12:12:35.579232","OBJECT_TYPE":"PAYLOAD","PERIOD":"95.592","OBJECT_ID":"2019-074BF","MEAN_ANOMALY":"278.5604","NORAD_CAT_ID":"44766","OBJECT_NAME":"STARLINK-1061","ELEMENT_SET_NO":"999","MEAN_MOTION_DOT":"0.00000583","GP_ID":"191102005","SITE":"AFETR","LAUNCH_DATE":"2019-11-11","MEAN_MOTION":"15.06400434","FILE":"3232651","SEMIMAJOR_AXIS":"6925.347","APOAPSIS":"548.101","COUNTRY_CODE":"US","RA_OF_ASC_NODE":"12.5766","ECCENTRICITY":"0.00012840","TLE_LINE1":"1 44766U 19074BF  21338.50874513  .00000583  00000-0  58044-4 0  9999","MEAN_MOTION_DDOT":"0.0000000000000","ARG_OF_PERICENTER":"81.5530","INCLINATION":"53.0552","CENTER_NAME":"EARTH","REF_FRAME":"TEME","CLASSIFICATION_TYPE":"U","REV_AT_EPOCH":"11364","TLE_LINE2":"2 44766  53.0552  12.5766 0001284  81.5530 278.5604 15.06400434113647"},{"OBJECT_TYPE":"PAYLOAD","OBJECT_ID":"2019-074BG","PERIOD":"95.593","NORAD_CAT_ID":"44767","OBJECT_NAME":"STARLINK-1062","MEAN_ANOMALY":"296.5044","BSTAR":"-0.00009664000000","PERIAPSIS":"546.236","EPHEMERIS_TYPE":"0","DECAY_DATE":null,"EPOCH":"2021-12-04T21:35:13.509888","MEAN_ELEMENT_THEORY":"SGP4","TIME_SYSTEM":"UTC","RCS_SIZE":"LARGE","TLE_LINE1":"1 44767U 19074BG  21338.89946192 -.00001720  00000-0 -96640-4 0  9995","MEAN_MOTION_DDOT":"0.0000000000000","ARG_OF_PERICENTER":"63.6094","ECCENTRICITY":"0.00014520","CLASSIFICATION_TYPE":"U","TLE_LINE2":"2 44767  53.0553  10.8284 0001452  63.6094 296.5044 15.06390703113700","REV_AT_EPOCH":"11370","INCLINATION":"53.0553","CENTER_NAME":"EARTH","REF_FRAME":"TEME","GP_ID":"191102256","LAUNCH_DATE":"2019-11-11","SITE":"AFETR","MEAN_MOTION":"15.06390703","FILE":"3232651","SEMIMAJOR_AXIS":"6925.377","ELEMENT_SET_NO":"999","MEAN_MOTION_DOT":"-0.00001720","APOAPSIS":"548.248","RA_OF_ASC_NODE":"10.8284","COUNTRY_CODE":"US"},{"DECAY_DATE":null,"EPHEMERIS_TYPE":"0","EPOCH":"2021-12-04T18:55:59.748672","MEAN_ELEMENT_THEORY":"SGP4","RCS_SIZE":"LARGE","TIME_SYSTEM":"UTC","BSTAR":"0.00002922600000","PERIAPSIS":"546.262","NORAD_CAT_ID":"44768","OBJECT_NAME":"STARLINK-1063","MEAN_ANOMALY":"294.5825","OBJECT_ID":"2019-074BH","PERIOD":"95.593","OBJECT_TYPE":"PAYLOAD","APOAPSIS":"548.217","RA_OF_ASC_NODE":"11.3302","COUNTRY_CODE":"US","GP_ID":"191101004","LAUNCH_DATE":"2019-11-11","SITE":"AFETR","MEAN_MOTION":"15.06391508","FILE":"3232651","SEMIMAJOR_AXIS":"6925.375","ELEMENT_SET_NO":"999","MEAN_MOTION_DOT":"0.00000154","CLASSIFICATION_TYPE":"U","REV_AT_EPOCH":"11369","TLE_LINE2":"2 44768  53.0550  11.3302 0001412  65.5311 294.5825 15.06391508113691","INCLINATION":"53.0550","REF_FRAME":"TEME","CENTER_NAME":"EARTH","MEAN_MOTION_DDOT":"0.0000000000000","TLE_LINE1":"1 44768U 19074BH  21338.78888598  .00000154  00000-0  29226-4 0  9993","ARG_OF_PERICENTER":"65.5311","ECCENTRICITY":"0.00014120"},{"GP_ID":"191100755","LAUNCH_DATE":"2019-11-11","SITE":"AFETR","MEAN_MOTION":"15.58738159","FILE":"3232651","SEMIMAJOR_AXIS":"6769.445","ELEMENT_SET_NO":"999","MEAN_MOTION_DOT":"0.00016770","APOAPSIS":"393.932","RA_OF_ASC_NODE":"339.3187","COUNTRY_CODE":"US","TLE_LINE1":"1 44769U 19074BJ  21338.30180993  .00016770  00000-0  21970-3 0  9994","MEAN_MOTION_DDOT":"0.0000000000000","ARG_OF_PERICENTER":"74.8762","ECCENTRICITY":"0.00038740","CLASSIFICATION_TYPE":"U","REV_AT_EPOCH":"11416","TLE_LINE2":"2 44769  53.0565 339.3187 0003874  74.8762 285.2679 15.58738159114160","INCLINATION":"53.0565","CENTER_NAME":"EARTH","REF_FRAME":"TEME","BSTAR":"0.00021970000000","PERIAPSIS":"388.688","EPHEMERIS_TYPE":"0","DECAY_DATE":null,"EPOCH":"2021-12-04T07:14:36.377952","MEAN_ELEMENT_THEORY":"SGP4","TIME_SYSTEM":"UTC","RCS_SIZE":"LARGE","OBJECT_TYPE":"PAYLOAD","OBJECT_ID":"2019-074BJ","PERIOD":"92.382","NORAD_CAT_ID":"44769","OBJECT_NAME":"STARLINK-1064","MEAN_ANOMALY":"285.2679"},{"COUNTRY_CODE":"US","RA_OF_ASC_NODE":"4.6830","APOAPSIS":"538.885","FILE":"3232651","SEMIMAJOR_AXIS":"6916.293","MEAN_MOTION":"15.09359557","LAUNCH_DATE":"2019-11-11","GP_ID":"191101506","SITE":"AFETR","MEAN_MOTION_DOT":"0.00004623","ELEMENT_SET_NO":"999","TLE_LINE2":"2 44770  53.0032   4.6830 0001051 118.4641 241.6454 15.09359557113752","REV_AT_EPOCH":"11375","CLASSIFICATION_TYPE":"U","REF_FRAME":"TEME","CENTER_NAME":"EARTH","INCLINATION":"53.0032","ARG_OF_PERICENTER":"118.4641","MEAN_MOTION_DDOT":"0.0000000000000","TLE_LINE1":"1 44770U 19074BK  21338.78660691  .00004623  00000-0  30404-3 0  9992","ECCENTRICITY":"0.00010510","EPOCH":"2021-12-04T18:52:42.837024","DECAY_DATE":null,"EPHEMERIS_TYPE":"0","RCS_SIZE":"LARGE","TIME_SYSTEM":"UTC","MEAN_ELEMENT_THEORY":"SGP4","BSTAR":"0.00030404000000","PERIAPSIS":"537.431","OBJECT_NAME":"STARLINK-1065","NORAD_CAT_ID":"44770","MEAN_ANOMALY":"241.6454","PERIOD":"95.405","OBJECT_ID":"2019-074BK","OBJECT_TYPE":"PAYLOAD"},{"MEAN_MOTION_DDOT":"0.0000000000000","TLE_LINE1":"1 44771U 19074BL  21338.37973843  .00001164  00000-0  97055-4 0  9997","ARG_OF_PERICENTER":"72.4002","ECCENTRICITY":"0.00013770","CLASSIFICATION_TYPE":"U","REV_AT_EPOCH":"11362","TLE_LINE2":"2 44771  53.0556  13.1664 0001377  72.4002 287.7137 15.06397928113621","INCLINATION":"53.0556","REF_FRAME":"TEME","CENTER_NAME":"EARTH","GP_ID":"191101757","SITE":"AFETR","LAUNCH_DATE":"2019-11-11","MEAN_MOTION":"15.06397928","FILE":"3232651","SEMIMAJOR_AXIS":"6925.355","ELEMENT_SET_NO":"999","MEAN_MOTION_DOT":"0.00001164","APOAPSIS":"548.174","COUNTRY_CODE":"US","RA_OF_ASC_NODE":"13.1664","PERIOD":"95.592","OBJECT_ID":"2019-074BL","OBJECT_TYPE":"PAYLOAD","NORAD_CAT_ID":"44771","OBJECT_NAME":"STARLINK-1067","MEAN_ANOMALY":"287.7137","BSTAR":"0.00009705500000","PERIAPSIS":"546.266","DECAY_DATE":null,"EPHEMERIS_TYPE":"0","EPOCH":"2021-12-04T09:06:49.400352","MEAN_ELEMENT_THEORY":"SGP4","RCS_SIZE":"LARGE","TIME_SYSTEM":"UTC"}];
